{
    "links": {
        "self": "http://www.neowsapp.com/rest/v1/neo/3337714?api_key=iIulBulltgU6a56xZRHN4H3l9WmuAYTsLGpBGhQ2"
    },
    "id": "3337714",
    "neo_reference_id": "3337714",
    "name": "(2006 OE7)",
    "designation": "2006 OE7",
    "nasa_jpl_url": "http://ssd.jpl.nasa.gov/sbdb.cgi?sstr=3337714",
    "absolute_magnitude_h": 20.3,
    "estimated_diameter": {
        "kilometers": {
            "estimated_diameter_min": 0.2315021222,
            "estimated_diameter_max": 0.5176544822
        },
        "meters": {
            "estimated_diameter_min": 231.5021222103,
            "estimated_diameter_max": 517.6544821978
        },
        "miles": {
            "estimated_diameter_min": 0.1438487052,
            "estimated_diameter_max": 0.3216554833
        },
        "feet": {
            "estimated_diameter_min": 759.5214226325,
            "estimated_diameter_max": 1698.3415313737
        }
    },
    "is_potentially_hazardous_asteroid": false,
    "close_approach_data": [
        {
            "close_approach_date": "2006-08-05",
            "close_approach_date_full": "2006-Aug-05 02:50",
            "epoch_date_close_approach": 1154746200000,
            "relative_velocity": {
                "kilometers_per_second": "31.7601935894",
                "kilometers_per_hour": "114336.6969218778",
                "miles_per_hour": "71044.3770401523"
            },
            "miss_distance": {
                "astronomical": "0.2051759882",
                "lunar": "79.8134594098",
                "kilometers": "30693890.809865134",
                "miles": "19072299.3549774892"
            },
            "orbiting_body": "Earth"
        }
    ],
    "orbital_data": {
        "orbit_id": "11",
        "orbit_determination_date": "2017-04-06 09:08:21",
        "first_observation_date": "2006-07-24",
        "last_observation_date": "2006-08-02",
        "data_arc_in_days": 9,
        "observations_used": 24,
        "orbit_uncertainty": "9",
        "minimum_orbit_intersection": ".0891425",
        "jupiter_tisserand_invariant": "4.054",
        "epoch_osculation": "2453943.5",
        "eccentricity": ".7785864730063128",
        "semi_major_axis": "1.538242527033825",
        "inclination": "10.34964979461739",
        "ascending_node_longitude": "291.7434461514574",
        "orbital_period": "696.8441327366153",
        "perihelion_distance": ".3405877032822414",
        "perihelion_argument": "150.5433940333221",
        "aphelion_distance": "2.735897350785408",
        "perihelion_time": "2453996.286321980594",
        "mean_anomaly": "332.7298042413218",
        "mean_motion": ".5166148111001868",
        "equinox": "J2000",
        "orbit_class": {
            "orbit_class_type": "APO",
            "orbit_class_description": "Near-Earth asteroid orbits which cross the Earth’s orbit similar to that of 1862 Apollo",
            "orbit_class_range": "a (semi-major axis) > 1.0 AU; q (perihelion) < 1.017 AU"
        }
    },
    "is_sentry_object": false
}